NORAD_CAT_ID,OBJECT_NAME,OBJECT_TYPE,EPOCH,MEAN_MOTION,ECCENTRICITY,INCLINATION,RA_OF_ASC_NODE,ARG_OF_PERICENTER,MEAN_ANOMALY,BSTAR,MEAN_MOTION_DOT,MEAN_MOTION_DDOT,TLE_LINE0,TLE_LINE1,TLE_LINE2,SEMIMAJOR_AXIS,PERIOD,APOGEE,PERIGEE,DECAYED
52700.0,STARLINK-4034,PAYLOAD,2023-03-22 21:27:03,15.08848785,0.0001591,53.2157,329.9859,86.6467,273.4707,0.0014281,0.00022519,0.0,0 STARLINK-4034,1 52700U 22053AW  23081.89379363  .00022519  00000-0  14281-2 0  9995,2 52700  53.2157 329.9859 0001591  86.6467 273.4707 15.08848785 47620,6917.854,95.437,540.819,538.618,0.0
52700.0,STARLINK-4034,PAYLOAD,2023-03-22 23:02:26,15.08850667,0.0001594,53.2157,329.6886,84.6534,275.464,0.0014394,0.00022701,0.0,0 STARLINK-4034,1 52700U 22053AW  23081.96003323  .00022701  00000-0  14394-2 0  9991,2 52700  53.2157 329.6886 0001594  84.6534 275.4640 15.08850667 47229,6917.848,95.437,540.815,538.61,0.0
52700.0,STARLINK-4034,PAYLOAD,2023-03-23 19:42:28,15.08857219,0.0001409,53.215,325.8219,85.4044,274.711,0.0020345,0.00032255,0.0,0 STARLINK-4034,1 52700U 22053AW  23082.82115800  .00032255  00000-0  20345-2 0  9999,2 52700  53.2150 325.8219 0001409  85.4044 274.7110 15.08857219 47358,6917.828,95.436,540.667,538.718,0.0
52700.0,STARLINK-4034,PAYLOAD,2023-03-23 22:53:14,15.08860958,0.0001563,53.2148,325.2285,82.421,277.696,0.0018959,0.00030032,0.0,0 STARLINK-4034,1 52700U 22053AW  23082.95363684  .00030032  00000-0  18959-2 0  9997,2 52700  53.2148 325.2285 0001563  82.4210 277.6960 15.08860958 47781,6917.816,95.436,540.763,538.6,0.0
52700.0,STARLINK-4034,PAYLOAD,2023-03-24 02:04:00,15.08870659,0.0001586,53.2149,324.6331,82.0604,278.0568,0.0019733,0.00031283,0.0,0 STARLINK-4034,1 52700U 22053AW  23083.08611413  .00031283  00000-0  19733-2 0  9998,2 52700  53.2149 324.6331 0001586  82.0604 278.0568 15.08870659 47806,6917.787,95.436,540.749,538.555,0.0
52700.0,STARLINK-4034,PAYLOAD,2023-03-24 21:08:35,15.08875633,0.0003113,53.2143,321.0654,136.4368,223.6871,0.00043382,6.63e-05,0.0,0 STARLINK-4034,1 52700U 22053AW  23083.88097134  .00006630  00000-0  43382-3 0  9990,2 52700  53.2143 321.0654 0003113 136.4368 223.6871 15.08875633 47516,6917.771,95.435,541.79,537.483,0.0
52700.0,STARLINK-4034,PAYLOAD,2023-03-24 22:43:58,15.08924034,0.0001391,53.2142,320.7685,94.4988,265.6163,0.0027364,0.00043632,0.0,0 STARLINK-4034,1 52700U 22053AW  23083.94720919  .00043632  00000-0  27364-2 0  9995,2 52700  53.2142 320.7685 0001391  94.4988 265.6163 15.08924034 47938,6917.624,95.432,540.451,538.526,0.0
52700.0,STARLINK-4034,PAYLOAD,2023-03-25 00:19:21,15.08901551,0.0001361,53.2142,320.4701,85.4032,274.7115,0.0017102,0.00027081,0.0,0 STARLINK-4034,1 52700U 22053AW  23084.01344450  .00027081  00000-0  17102-2 0  9995,2 52700  53.2142 320.4701 0001361  85.4032 274.7115 15.08901551 47534,6917.692,95.434,540.499,538.616,0.0
52700.0,STARLINK-4034,PAYLOAD,2023-03-25 20:59:25,15.08790618,0.0001161,53.2144,316.6044,118.1782,241.9328,0.00069757,0.00010816,0.0,0 STARLINK-4034,1 52700U 22053AW  23084.87459943  .00010816  00000-0  69757-3 0  9995,2 52700  53.2144 316.6044 0001161 118.1782 241.9328 15.08790618 47663,6918.031,95.441,540.7,539.093,0.0
52700.0,STARLINK-4034,PAYLOAD,2023-03-25 22:34:48,15.08795857,0.0001111,53.2146,316.306,89.0842,271.0277,-0.00033693,-5.639e-05,0.0,0 STARLINK-4034,1 52700U 22053AW  23084.94084001 -.00005639  00000-0 -33693-3 0  9991,2 52700  53.2146 316.3060 0001111  89.0842 271.0277 15.08795857 48082,6918.015,95.44,540.649,539.112,0.0
52700.0,STARLINK-4034,PAYLOAD,2023-03-26 22:25:37,15.08830168,9.94e-05,53.2147,311.8455,91.9347,268.1759,0.0014168,0.00022326,0.0,0 STARLINK-4034,1 52700U 22053AW  23085.93446299  .00022326  00000-0  14168-2 0  9997,2 52700  53.2147 311.8455 0000994  91.9347 268.1759 15.08830168 48235,6917.91,95.438,540.463,539.088,0.0
52700.0,STARLINK-4034,PAYLOAD,2023-03-27 00:01:00,15.08837634,9.49e-05,53.2143,311.5486,89.0563,271.0538,0.0017235,0.00027246,0.0,0 STARLINK-4034,1 52700U 22053AW  23086.00070308  .00027246  00000-0  17235-2 0  9994,2 52700  53.2143 311.5486 0000949  89.0563 271.0538 15.08837634 47838,6917.888,95.438,540.409,539.096,0.0
52700.0,STARLINK-4034,PAYLOAD,2023-03-27 22:16:23,15.08891903,8.67e-05,53.2142,307.3852,87.2306,272.8785,0.0018264,0.0002894,0.0,0 STARLINK-4034,1 52700U 22053AW  23086.92804515  .00028940  00000-0  18264-2 0  9995,2 52700  53.2142 307.3852 0000867  87.2306 272.8785 15.08891903 48384,6917.722,95.434,540.187,538.987,0.0
52700.0,STARLINK-4034,PAYLOAD,2023-03-28 14:10:14,15.08866954,0.0001314,53.2139,304.4107,89.7117,270.4026,0.0013003,0.00020482,0.0,0 STARLINK-4034,1 52700U 22053AW  23087.59044210  .00020482  00000-0  13003-2 0  9996,2 52700  53.2139 304.4107 0001314  89.7117 270.4026 15.08866954 48072,6917.798,95.436,540.572,538.754,0.0
52700.0,STARLINK-4034,PAYLOAD,2023-03-28 20:31:46,15.08857541,0.0001134,53.2155,303.2209,70.7542,289.3573,0.0011365,0.00017854,0.0,0 STARLINK-4034,1 52700U 22053AW  23087.85540176  .00017854  00000-0  11365-2 0  9995,2 52700  53.2155 303.2209 0001134  70.7542 289.3573 15.08857541 48520,6917.827,95.436,540.476,538.907,0.0
52700.0,STARLINK-4034,PAYLOAD,2023-03-28 23:42:32,15.08868243,9.43e-05,53.2142,302.6262,61.5148,298.5939,0.00098224,0.00015391,0.0,0 STARLINK-4034,1 52700U 22053AW  23087.98787812  .00015391  00000-0  98224-3 0  9993,2 52700  53.2142 302.6262 0000943  61.5148 298.5939 15.08868243 48131,6917.794,95.436,540.311,539.007,0.0
52700.0,STARLINK-4034,PAYLOAD,2023-03-29 20:22:33,15.08848239,9.58e-05,53.2131,298.7588,73.2611,286.8486,0.0010183,0.00015959,0.0,0 STARLINK-4034,1 52700U 22053AW  23088.84900178  .00015959  00000-0  10183-2 0  9998,2 52700  53.2131 298.7588 0000958  73.2611 286.8486 15.08848239 48260,6917.855,95.437,540.383,539.057,0.0
52700.0,STARLINK-4034,PAYLOAD,2023-03-30 07:30:15,15.08850442,8.44e-05,53.2139,296.6808,55.2687,304.8385,0.0006275,9.716e-05,0.0,0 STARLINK-4034,1 52700U 22053AW  23089.31268024  .00009716  00000-0  62750-3 0  9990,2 52700  53.2139 296.6808 0000844  55.2687 304.8385 15.08850442 48333,6917.848,95.437,540.297,539.13,0.0
52700.0,STARLINK-4034,PAYLOAD,2023-03-30 20:13:20,15.08857682,0.0001176,53.2149,294.2999,80.8966,279.2159,0.00118,0.00018551,0.0,0 STARLINK-4034,1 52700U 22053AW  23089.84259768  .00018551  00000-0  11800-2 0  9999,2 52700  53.2149 294.2999 0001176  80.8966 279.2159 15.08857682 48823,6917.826,95.436,540.505,538.878,0.0
52700.0,STARLINK-4034,PAYLOAD,2023-03-31 13:42:35,15.08844,7.86e-05,53.215,291.0309,58.5084,301.5985,0.00039463,5.999e-05,0.0,0 STARLINK-4034,1 52700U 22053AW  23090.57123887  .00005999  00000-0  39463-3 0  9991,2 52700  53.2150 291.0309 0000786  58.5084 301.5985 15.08844000 48527,6917.868,95.437,540.277,539.189,0.0
52700.0,STARLINK-4034,PAYLOAD,2023-04-01 13:33:22,15.08829893,0.0001481,53.2151,286.5694,103.1709,256.9448,-1.9563e-05,-5.99e-06,0.0,0 STARLINK-4034,1 52700U 22053AW  23091.56484546 -.00000599  00000-0 -19563-4 0  9996,2 52700  53.2151 286.5694 0001481 103.1709 256.9448 15.08829893 48674,6917.911,95.438,540.801,538.752,0.0
52700.0,STARLINK-4034,PAYLOAD,2023-04-01 19:54:55,15.08831792,8.76e-05,53.2156,285.3799,83.0395,277.0697,7.6904e-06,-1.65e-06,0.0,0 STARLINK-4034,1 52700U 22053AW  23091.82980814 -.00000165  00000-0  76904-5 0  9995,2 52700  53.2156 285.3799 0000876  83.0395 277.0697 15.08831792 49128,6917.905,95.438,540.376,539.164,0.0
52700.0,STARLINK-4034,PAYLOAD,2023-04-02 13:24:10,15.0883973,8.21e-05,53.2143,282.1077,86.8575,273.2511,0.00028459,4.244e-05,0.0,0 STARLINK-4034,1 52700U 22053AW  23092.55844918  .00004244  00000-0  28459-3 0  9991,2 52700  53.2143 282.1077 0000821  86.8575 273.2511 15.08839730 49234,6917.881,95.438,540.314,539.178,0.0
52700.0,STARLINK-4034,PAYLOAD,2023-04-02 19:45:42,15.08849926,9.32e-05,53.2145,280.9194,89.0393,271.0706,0.00070412,0.00010939,0.0,0 STARLINK-4034,1 52700U 22053AW  23092.82340815  .00010939  00000-0  70412-3 0  9992,2 52700  53.2145 280.9194 0000932  89.0393 271.0706 15.08849926 48866,6917.85,95.437,540.36,539.07,0.0
52700.0,STARLINK-4034,PAYLOAD,2023-04-03 13:14:56,15.08844955,8.69e-05,53.2139,277.6479,99.5282,260.5808,0.00018662,2.684e-05,0.0,0 STARLINK-4034,1 52700U 22053AW  23093.55204719  .00002684  00000-0  18662-3 0  9992,2 52700  53.2139 277.6479 0000869  99.5282 260.5808 15.08844955 48975,6917.865,95.437,540.331,539.129,0.0
52700.0,STARLINK-4034,PAYLOAD,2023-04-03 21:11:52,15.08854065,8.42e-05,53.2136,276.1606,95.67,264.4388,0.00065085,0.0001009,0.0,0 STARLINK-4034,1 52700U 22053AW  23093.88324521  .00010090  00000-0  65085-3 0  9993,2 52700  53.2136 276.1606 0000842  95.6700 264.4388 15.08854065 49432,6917.837,95.437,540.285,539.12,0.0
52700.0,STARLINK-4034,PAYLOAD,2023-04-04 13:05:43,15.08841931,9.15e-05,53.2136,273.1864,98.5919,261.5177,0.00014505,2.022e-05,0.0,0 STARLINK-4034,1 52700U 22053AW  23094.54564680  .00002022  00000-0  14505-3 0  9996,2 52700  53.2136 273.1864 0000915  98.5919 261.5177 15.08841931 49128,6917.874,95.437,540.372,539.107,0.0
52700.0,STARLINK-4034,PAYLOAD,2023-04-05 11:21:07,15.08842743,8.73e-05,53.2115,269.0205,96.8958,263.2133,0.00015231,2.137e-05,0.0,0 STARLINK-4034,1 52700U 22053AW  23095.47300692  .00002137  00000-0  15231-3 0  9994,2 52700  53.2115 269.0205 0000873  96.8958 263.2133 15.08842743 49678,6917.872,95.437,540.341,539.133,0.0
52700.0,STARLINK-4034,PAYLOAD,2023-04-05 16:07:17,15.0884345,8.59e-05,53.2118,268.1282,96.3571,263.7519,0.00013025,1.786e-05,0.0,0 STARLINK-4034,1 52700U 22053AW  23095.67172654  .00001786  00000-0  13025-3 0  9999,2 52700  53.2118 268.1282 0000859  96.3571 263.7519 15.08843450 49293,6917.87,95.437,540.329,539.141,0.0
52700.0,STARLINK-4034,PAYLOAD,2023-04-05 17:42:40,15.0884309,8.29e-05,53.2127,267.8316,95.8664,264.2422,0.0001174,1.581e-05,0.0,0 STARLINK-4034,1 52700U 22053AW  23095.73796653  .00001581  00000-0  11740-3 0  9992,2 52700  53.2127 267.8316 0000829  95.8664 264.2422 15.08843090 49717,6917.871,95.437,540.309,539.162,0.0
